start=new Date('2022-04-06T00:00:00.000Z').valueOf();
sats=[{"MEAN_MOTION_DDOT":"0.0000000000000","TLE_LINE2":"2 49445  53.2154 175.5838 0002097  29.8997 268.1757 15.08857940  3564","TLE_LINE1":"1 49445U 21104AP  22095.91667824 -.00083395  00000-0 -52802-2 0  9994","INCLINATION":"53.2154","RA_OF_ASC_NODE":"175.5838","EPOCH":"2022-04-05T22:00:00.999936","PERIAPSIS":"538.240","LAUNCH_DATE":"2021-11-13","NORAD_CAT_ID":"49445","OBJECT_TYPE":"PAYLOAD","FILE":"3389912","MEAN_ELEMENT_THEORY":"SGP4","COUNTRY_CODE":"US","APOAPSIS":"541.141","MEAN_MOTION":"15.08857940","GP_ID":"200544953","REF_FRAME":"TEME","MEAN_ANOMALY":"268.1757","PERIOD":"95.436","ARG_OF_PERICENTER":"29.8997","ECCENTRICITY":"0.00020970","OBJECT_ID":"2021-104AP","SEMIMAJOR_AXIS":"6917.826","SITE":"AFETR","OBJECT_NAME":"STARLINK-3122","DECAY_DATE":null,"MEAN_MOTION_DOT":"-0.00083395","RCS_SIZE":"LARGE","TIME_SYSTEM":"UTC","CLASSIFICATION_TYPE":"U","EPHEMERIS_TYPE":"0","REV_AT_EPOCH":"356","BSTAR":"-0.00528020000000","CENTER_NAME":"EARTH","ELEMENT_SET_NO":"999"},{"MEAN_ELEMENT_THEORY":"SGP4","FILE":"3389912","COUNTRY_CODE":"US","APOAPSIS":"541.231","LAUNCH_DATE":"2021-11-13","PERIAPSIS":"538.342","NORAD_CAT_ID":"49446","OBJECT_TYPE":"PAYLOAD","RA_OF_ASC_NODE":"165.5696","EPOCH":"2022-04-05T22:00:00.999936","TLE_LINE2":"2 49446  53.2168 165.5696 0002088  27.4441   5.6497 15.08826697  3626","TLE_LINE1":"1 49446U 21104AQ  22095.91667824 -.00035108  00000-0 -21993-2 0  9991","MEAN_MOTION_DDOT":"0.0000000000000","INCLINATION":"53.2168","BSTAR":"-0.00219930000000","ELEMENT_SET_NO":"999","CENTER_NAME":"EARTH","MEAN_MOTION_DOT":"-0.00035108","TIME_SYSTEM":"UTC","RCS_SIZE":"LARGE","EPHEMERIS_TYPE":"0","REV_AT_EPOCH":"362","CLASSIFICATION_TYPE":"U","ECCENTRICITY":"0.00020880","SITE":"AFETR","SEMIMAJOR_AXIS":"6917.921","OBJECT_ID":"2021-104AQ","DECAY_DATE":null,"OBJECT_NAME":"STARLINK-3099","MEAN_MOTION":"15.08826697","GP_ID":"200546204","REF_FRAME":"TEME","MEAN_ANOMALY":"5.6497","PERIOD":"95.438","ARG_OF_PERICENTER":"27.4441"},{"RCS_SIZE":"LARGE","TIME_SYSTEM":"UTC","MEAN_MOTION_DOT":"-0.00043135","CLASSIFICATION_TYPE":"U","EPHEMERIS_TYPE":"0","REV_AT_EPOCH":"361","CENTER_NAME":"EARTH","ELEMENT_SET_NO":"999","BSTAR":"-0.00270880000000","GP_ID":"200545955","MEAN_MOTION":"15.08833280","ARG_OF_PERICENTER":"27.8947","PERIOD":"95.438","MEAN_ANOMALY":"310.2325","REF_FRAME":"TEME","OBJECT_ID":"2021-104AR","SEMIMAJOR_AXIS":"6917.901","SITE":"AFETR","ECCENTRICITY":"0.00021940","OBJECT_NAME":"STARLINK-3115","DECAY_DATE":null,"LAUNCH_DATE":"2021-11-13","PERIAPSIS":"538.248","OBJECT_TYPE":"PAYLOAD","NORAD_CAT_ID":"49447","COUNTRY_CODE":"US","FILE":"3389912","MEAN_ELEMENT_THEORY":"SGP4","APOAPSIS":"541.284","INCLINATION":"53.2172","MEAN_MOTION_DDOT":"0.0000000000000","TLE_LINE2":"2 49447  53.2172 175.5890 0002194  27.8947 310.2325 15.08833280  3612","TLE_LINE1":"1 49447U 21104AR  22095.91667824 -.00043135  00000-0 -27088-2 0  9992","EPOCH":"2022-04-05T22:00:00.999936","RA_OF_ASC_NODE":"175.5890"},{"MEAN_MOTION_DOT":"-0.00041368","RCS_SIZE":"LARGE","TIME_SYSTEM":"UTC","CLASSIFICATION_TYPE":"U","EPHEMERIS_TYPE":"0","REV_AT_EPOCH":"361","BSTAR":"-0.00259680000000","CENTER_NAME":"EARTH","ELEMENT_SET_NO":"999","MEAN_MOTION":"15.08829343","GP_ID":"200545203","REF_FRAME":"TEME","PERIOD":"95.438","MEAN_ANOMALY":"246.0384","ARG_OF_PERICENTER":"32.0994","ECCENTRICITY":"0.00020620","OBJECT_ID":"2021-104AS","SEMIMAJOR_AXIS":"6917.913","SITE":"AFETR","OBJECT_NAME":"STARLINK-3097","DECAY_DATE":null,"PERIAPSIS":"538.351","LAUNCH_DATE":"2021-11-13","NORAD_CAT_ID":"49448","OBJECT_TYPE":"PAYLOAD","FILE":"3389912","MEAN_ELEMENT_THEORY":"SGP4","COUNTRY_CODE":"US","APOAPSIS":"541.204","TLE_LINE1":"1 49448U 21104AS  22095.91667824 -.00041368  00000-0 -25968-2 0  9994","TLE_LINE2":"2 49448  53.2157 175.5861 0002062  32.0994 246.0384 15.08829343  3614","MEAN_MOTION_DDOT":"0.0000000000000","INCLINATION":"53.2157","RA_OF_ASC_NODE":"175.5861","EPOCH":"2022-04-05T22:00:00.999936"},{"BSTAR":"-0.00267340000000","CENTER_NAME":"EARTH","ELEMENT_SET_NO":"999","MEAN_MOTION_DOT":"-0.00042588","RCS_SIZE":"LARGE","TIME_SYSTEM":"UTC","CLASSIFICATION_TYPE":"U","REV_AT_EPOCH":"357","EPHEMERIS_TYPE":"0","ECCENTRICITY":"0.00019120","OBJECT_ID":"2021-104AT","SITE":"AFETR","SEMIMAJOR_AXIS":"6917.873","OBJECT_NAME":"STARLINK-3137","DECAY_DATE":null,"MEAN_MOTION":"15.08842305","GP_ID":"200545453","REF_FRAME":"TEME","ARG_OF_PERICENTER":"32.1094","PERIOD":"95.437","MEAN_ANOMALY":"325.9609","MEAN_ELEMENT_THEORY":"SGP4","FILE":"3389912","COUNTRY_CODE":"US","APOAPSIS":"541.061","PERIAPSIS":"538.416","LAUNCH_DATE":"2021-11-13","NORAD_CAT_ID":"49449","OBJECT_TYPE":"PAYLOAD","RA_OF_ASC_NODE":"175.5647","EPOCH":"2022-04-05T22:00:00.999936","TLE_LINE1":"1 49449U 21104AT  22095.91667824 -.00042588  00000-0 -26734-2 0  9992","TLE_LINE2":"2 49449  53.2153 175.5647 0001912  32.1094 325.9609 15.08842305  3573","MEAN_MOTION_DDOT":"0.0000000000000","INCLINATION":"53.2153"},{"FILE":"3389912","MEAN_ELEMENT_THEORY":"SGP4","COUNTRY_CODE":"US","APOAPSIS":"541.071","LAUNCH_DATE":"2021-11-13","PERIAPSIS":"538.297","NORAD_CAT_ID":"49450","OBJECT_TYPE":"PAYLOAD","RA_OF_ASC_NODE":"175.5910","EPOCH":"2022-04-05T22:00:00.999936","TLE_LINE2":"2 49450  53.2173 175.5910 0002005  37.6441 280.3475 15.08859972  3562","TLE_LINE1":"1 49450U 21104AU  22095.91667824 -.00049910  00000-0 -31379-2 0  9991","MEAN_MOTION_DDOT":"0.0000000000000","INCLINATION":"53.2173","BSTAR":"-0.00313790000000","ELEMENT_SET_NO":"999","CENTER_NAME":"EARTH","MEAN_MOTION_DOT":"-0.00049910","TIME_SYSTEM":"UTC","RCS_SIZE":"LARGE","REV_AT_EPOCH":"356","EPHEMERIS_TYPE":"0","CLASSIFICATION_TYPE":"U","ECCENTRICITY":"0.00020050","SEMIMAJOR_AXIS":"6917.819","SITE":"AFETR","OBJECT_ID":"2021-104AU","DECAY_DATE":null,"OBJECT_NAME":"STARLINK-3127","MEAN_MOTION":"15.08859972","GP_ID":"200545705","REF_FRAME":"TEME","MEAN_ANOMALY":"280.3475","PERIOD":"95.436","ARG_OF_PERICENTER":"37.6441"},{"APOAPSIS":"541.197","COUNTRY_CODE":"US","MEAN_ELEMENT_THEORY":"SGP4","FILE":"3389912","OBJECT_TYPE":"PAYLOAD","NORAD_CAT_ID":"49451","PERIAPSIS":"538.250","LAUNCH_DATE":"2021-11-13","EPOCH":"2022-04-05T22:00:00.999936","RA_OF_ASC_NODE":"175.5649","INCLINATION":"53.2167","MEAN_MOTION_DDOT":"0.0000000000000","TLE_LINE2":"2 49451  53.2167 175.5649 0002130  30.8462 347.2277 15.08847289  3574","TLE_LINE1":"1 49451U 21104AV  22095.91667824 -.00064088  00000-0 -40438-2 0  9991","ELEMENT_SET_NO":"999","CENTER_NAME":"EARTH","BSTAR":"-0.00404380000000","REV_AT_EPOCH":"357","EPHEMERIS_TYPE":"0","CLASSIFICATION_TYPE":"U","TIME_SYSTEM":"UTC","RCS_SIZE":"LARGE","MEAN_MOTION_DOT":"-0.00064088","DECAY_DATE":null,"OBJECT_NAME":"STARLINK-3125","SEMIMAJOR_AXIS":"6917.858","SITE":"AFETR","OBJECT_ID":"2021-104AV","ECCENTRICITY":"0.00021300","PERIOD":"95.437","MEAN_ANOMALY":"347.2277","ARG_OF_PERICENTER":"30.8462","REF_FRAME":"TEME","GP_ID":"200546455","MEAN_MOTION":"15.08847289"},{"INCLINATION":"53.2161","TLE_LINE2":"2 49452  53.2161 175.5622 0002053  30.8014  62.1036 15.08844328  3574","MEAN_MOTION_DDOT":"0.0000000000000","TLE_LINE1":"1 49452U 21104AW  22095.91667824 -.00047468  00000-0 -29837-2 0  9995","EPOCH":"2022-04-05T22:00:00.999936","RA_OF_ASC_NODE":"175.5622","OBJECT_TYPE":"PAYLOAD","NORAD_CAT_ID":"49452","PERIAPSIS":"538.312","LAUNCH_DATE":"2021-11-13","APOAPSIS":"541.152","COUNTRY_CODE":"US","FILE":"3389912","MEAN_ELEMENT_THEORY":"SGP4","MEAN_ANOMALY":"62.1036","PERIOD":"95.437","ARG_OF_PERICENTER":"30.8014","REF_FRAME":"TEME","GP_ID":"200544704","MEAN_MOTION":"15.08844328","DECAY_DATE":null,"OBJECT_NAME":"STARLINK-3150","SITE":"AFETR","SEMIMAJOR_AXIS":"6917.867","OBJECT_ID":"2021-104AW","ECCENTRICITY":"0.00020530","REV_AT_EPOCH":"357","EPHEMERIS_TYPE":"0","CLASSIFICATION_TYPE":"U","TIME_SYSTEM":"UTC","RCS_SIZE":"LARGE","MEAN_MOTION_DOT":"-0.00047468","ELEMENT_SET_NO":"999","CENTER_NAME":"EARTH","BSTAR":"-0.00298370000000"},{"APOAPSIS":"541.156","MEAN_ELEMENT_THEORY":"SGP4","FILE":"3389912","COUNTRY_CODE":"US","NORAD_CAT_ID":"49453","OBJECT_TYPE":"PAYLOAD","LAUNCH_DATE":"2021-11-13","PERIAPSIS":"538.311","RA_OF_ASC_NODE":"175.5627","EPOCH":"2022-04-05T22:00:00.999936","TLE_LINE2":"2 49453  53.2168 175.5627 0002056  31.7829  26.3388 15.08843875  3572","TLE_LINE1":"1 49453U 21104AX  22095.91667824 -.00069311  00000-0 -43785-2 0  9995","MEAN_MOTION_DDOT":"0.0000000000000","INCLINATION":"53.2168","BSTAR":"-0.00437850000000","CENTER_NAME":"EARTH","ELEMENT_SET_NO":"999","CLASSIFICATION_TYPE":"U","EPHEMERIS_TYPE":"0","REV_AT_EPOCH":"357","MEAN_MOTION_DOT":"-0.00069311","RCS_SIZE":"LARGE","TIME_SYSTEM":"UTC","OBJECT_NAME":"STARLINK-3129","DECAY_DATE":null,"ECCENTRICITY":"0.00020560","OBJECT_ID":"2021-104AX","SEMIMAJOR_AXIS":"6917.869","SITE":"AFETR","REF_FRAME":"TEME","PERIOD":"95.437","MEAN_ANOMALY":"26.3388","ARG_OF_PERICENTER":"31.7829","MEAN_MOTION":"15.08843875","GP_ID":"200544954"},{"BSTAR":"-0.00265320000000","CENTER_NAME":"EARTH","ELEMENT_SET_NO":"999","MEAN_MOTION_DOT":"-0.00042312","RCS_SIZE":"LARGE","TIME_SYSTEM":"UTC","CLASSIFICATION_TYPE":"U","REV_AT_EPOCH":"362","EPHEMERIS_TYPE":"0","ECCENTRICITY":"0.00027090","OBJECT_ID":"2021-104AY","SEMIMAJOR_AXIS":"6917.769","SITE":"AFETR","OBJECT_NAME":"STARLINK-3160","DECAY_DATE":null,"MEAN_MOTION":"15.08876550","GP_ID":"200546205","REF_FRAME":"TEME","PERIOD":"95.435","MEAN_ANOMALY":"17.0533","ARG_OF_PERICENTER":"20.9841","FILE":"3389912","MEAN_ELEMENT_THEORY":"SGP4","COUNTRY_CODE":"US","APOAPSIS":"541.508","LAUNCH_DATE":"2021-11-13","PERIAPSIS":"537.760","NORAD_CAT_ID":"49454","OBJECT_TYPE":"PAYLOAD","RA_OF_ASC_NODE":"175.5661","EPOCH":"2022-04-05T22:00:00.999936","TLE_LINE2":"2 49454  53.2178 175.5661 0002709  20.9841  17.0533 15.08876550  3622","MEAN_MOTION_DDOT":"0.0000000000000","TLE_LINE1":"1 49454U 21104AY  22095.91667824 -.00042312  00000-0 -26532-2 0  9999","INCLINATION":"53.2178"}];
